[{"OBJECT_NAME":"BUFENG 1B","OBJECT_ID":"2019-032B","EPOCH":"2026-03-09T19:57:27.457920","MEAN_MOTION":15.25619535,"ECCENTRICITY":0.00242037,"INCLINATION":44.9701,"RA_OF_ASC_NODE":192.0248,"ARG_OF_PERICENTER":123.8847,"MEAN_ANOMALY":236.4342,"EPHEMERIS_TYPE":0,"CLASSIFICATION_TYPE":"U","NORAD_CAT_ID":44311,"ELEMENT_SET_NO":999,"REV_AT_EPOCH":37256,"BSTAR":0.00059375374,"MEAN_MOTION_DOT":0.00015236,"MEAN_MOTION_DDOT":0},{"OBJECT_NAME":"STARLINK-35820","OBJECT_ID":"2025-270K","EPOCH":"2026-03-09T22:38:50.901216","MEAN_MOTION":15.27584678,"ECCENTRICITY":0.0001503,"INCLINATION":43.0048,"RA_OF_ASC_NODE":54.8394,"ARG_OF_PERICENTER":240.2274,"MEAN_ANOMALY":119.8429,"EPHEMERIS_TYPE":0,"CLASSIFICATION_TYPE":"U","NORAD_CAT_ID":66597,"ELEMENT_SET_NO":999,"REV_AT_EPOCH":1785,"BSTAR":0.0011455077,"MEAN_MOTION_DOT":0.00031399,"MEAN_MOTION_DDOT":0}]
